NORAD_CAT_ID,OBJECT_NAME,OBJECT_TYPE,EPOCH,MEAN_MOTION,ECCENTRICITY,INCLINATION,RA_OF_ASC_NODE,ARG_OF_PERICENTER,MEAN_ANOMALY,BSTAR,MEAN_MOTION_DOT,MEAN_MOTION_DDOT,TLE_LINE0,TLE_LINE1,TLE_LINE2,SEMIMAJOR_AXIS,PERIOD,APOGEE,PERIGEE,DECAYED
54775.0,STARLINK-5465,PAYLOAD,2023-08-14 09:56:43,15.08842053,0.0001047,53.2159,296.0415,75.1791,284.9317,0.00014386,2.003e-05,0.0,0 STARLINK-5465,1 54775U 22175T   23226.41439335  .00002003  00000-0  14386-3 0  9992,2 54775  53.2159 296.0415 0001047  75.1791 284.9317 15.08842053 36115,6917.874,95.437,540.463,539.015,0.0
54775.0,STARLINK-5465,PAYLOAD,2023-08-15 11:22:53,15.08847235,0.0001005,53.2161,291.2833,88.4824,271.6283,0.00019948,2.889e-05,0.0,0 STARLINK-5465,1 54775U 22175T   23227.47423021  .00002889  00000-0  19948-3 0  9995,2 54775  53.2161 291.2833 0001005  88.4824 271.6283 15.08847235 36276,6917.858,95.437,540.419,539.028,0.0
54775.0,STARLINK-5465,PAYLOAD,2023-08-16 09:38:17,15.08836371,0.0001056,53.2162,287.1208,90.1129,269.9984,8.6899e-06,-1.49e-06,0.0,0 STARLINK-5465,1 54775U 22175T   23228.40159531 -.00000149  00000-0  86899-5 0  9990,2 54775  53.2162 287.1208 0001056  90.1129 269.9984 15.08836371 36414,6917.891,95.438,540.487,539.026,0.0
54775.0,STARLINK-5465,PAYLOAD,2023-08-17 09:29:04,15.08843193,0.0001391,53.2172,282.6612,96.3774,263.7376,0.00015011,2.102e-05,0.0,0 STARLINK-5465,1 54775U 22175T   23229.39519302  .00002102  00000-0  15011-3 0  9991,2 54775  53.2172 282.6612 0001391  96.3774 263.7376 15.08843193 36563,6917.871,95.437,540.698,538.773,0.0
54775.0,STARLINK-5465,PAYLOAD,2023-08-18 09:19:52,15.08836692,0.0001264,53.2163,278.1994,87.995,272.1187,6.0894e-05,6.81e-06,0.0,0 STARLINK-5465,1 54775U 22175T   23230.38879776  .00000681  00000-0  60894-4 0  9996,2 54775  53.2163 278.1994 0001264  87.9950 272.1187 15.08836692 36714,6917.891,95.438,540.63,538.881,0.0
54775.0,STARLINK-5465,PAYLOAD,2023-08-20 02:39:53,15.08837861,0.0001211,53.2157,270.4673,89.2718,270.8413,0.00010267,1.346e-05,0.0,0 STARLINK-5465,1 54775U 22175T   23232.11103844  .00001346  00000-0  10267-3 0  9992,2 54775  53.2157 270.4673 0001211  89.2718 270.8413 15.08837861 36979,6917.887,95.438,540.59,538.914,0.0
54775.0,STARLINK-5465,PAYLOAD,2023-08-21 08:52:13,15.08841163,0.0001234,53.2162,264.8178,91.0895,269.0238,5.0191e-05,5.11e-06,0.0,0 STARLINK-5465,1 54775U 22175T   23233.36959780  .00000511  00000-0  50191-4 0  9992,2 54775  53.2162 264.8178 0001234  91.0895 269.0238 15.08841163 37161,6917.877,95.437,540.596,538.888,0.0
54775.0,STARLINK-5465,PAYLOAD,2023-08-23 02:12:15,15.08838278,0.0001263,53.216,257.0861,90.8052,269.3085,4.5015e-05,4.29e-06,0.0,0 STARLINK-5465,1 54775U 22175T   23235.09184132  .00000429  00000-0  45015-4 0  9992,2 54775  53.2160 257.0861 0001263  90.8052 269.3085 15.08838278 37421,6917.886,95.438,540.624,538.877,0.0
54775.0,STARLINK-5465,PAYLOAD,2023-08-24 06:49:11,15.08833907,0.0001361,53.2163,251.7328,98.1109,262.0037,1.6926e-05,-1.9e-07,0.0,0 STARLINK-5465,1 54775U 22175T   23236.28416650 -.00000019  00000-0  16926-4 0  9992,2 54775  53.2163 251.7328 0001361  98.1109 262.0037 15.08833907 39766,6917.899,95.438,540.706,538.822,0.0
54775.0,STARLINK-5465,PAYLOAD,2023-08-25 09:50:45,15.08838526,0.0001339,53.2162,246.6771,95.4799,264.6345,2.9852e-05,1.87e-06,0.0,0 STARLINK-5465,1 54775U 22175T   23237.41024648  .00000187  00000-0  29852-4 0  9997,2 54775  53.2162 246.6771 0001339  95.4799 264.6345 15.08838526 37771,6917.885,95.438,540.676,538.824,0.0
54775.0,STARLINK-5465,PAYLOAD,2023-08-26 08:06:08,15.08844362,0.0001311,53.216,242.5136,91.0413,269.0729,0.00013154,1.806e-05,0.0,0 STARLINK-5465,1 54775U 22175T   23238.33760100  .00001806  00000-0  13154-3 0  9995,2 54775  53.2160 242.5136 0001311  91.0413 269.0729 15.08844362 40071,6917.867,95.437,540.639,538.825,0.0
54775.0,STARLINK-5465,PAYLOAD,2023-08-27 00:00:00,15.08839253,0.0001385,53.2162,239.5403,87.1813,272.9337,5.9569e-05,6.6e-06,0.0,0 STARLINK-5465,1 54775U 22175T   23239.00000691  .00000660  00000-0  59569-4 0  9990,2 54775  53.2162 239.5403 0001385  87.1813 272.9337 15.08839253 38019,6917.883,95.438,540.706,538.79,0.0
54775.0,STARLINK-5465,PAYLOAD,2023-08-27 04:46:10,15.08839387,0.0001387,53.2162,238.6481,87.1891,272.926,5.7022e-05,6.2e-06,0.0,0 STARLINK-5465,1 54775U 22175T   23239.19872706  .00000620  00000-0  57022-4 0  9992,2 54775  53.2162 238.6481 0001387  87.1891 272.9260 15.08839387 40200,6917.882,95.438,540.707,538.788,0.0
54775.0,STARLINK-5465,PAYLOAD,2023-08-28 06:12:19,15.08844143,0.0001401,53.2164,233.8905,89.303,270.8122,2.1522e-05,5.5e-07,0.0,0 STARLINK-5465,1 54775U 22175T   23240.25856366  .00000055  00000-0  21522-4 0  9993,2 54775  53.2164 233.8905 0001401  89.3030 270.8122 15.08844143 38203,6917.868,95.437,540.702,538.764,0.0
54775.0,STARLINK-5465,PAYLOAD,2023-08-28 10:58:29,15.08846236,0.0001398,53.2162,232.9983,88.5465,271.5687,3.7994e-05,3.17e-06,0.0,0 STARLINK-5465,1 54775U 22175T   23240.45728116  .00000317  00000-0  37994-4 0  9997,2 54775  53.2162 232.9983 0001398  88.5465 271.5687 15.08846236 40397,6917.861,95.437,540.693,538.759,0.0
54775.0,STARLINK-5465,PAYLOAD,2023-08-29 09:13:53,15.08840431,0.0001498,53.2169,228.8342,92.7888,267.3276,3.7269e-05,3.05e-06,0.0,0 STARLINK-5465,1 54775U 22175T   23241.38464447  .00000305  00000-0  37269-4 0  9996,2 54775  53.2169 228.8342 0001498  92.7888 267.3276 15.08840431 38377,6917.879,95.438,540.78,538.708,0.0
54775.0,STARLINK-5465,PAYLOAD,2023-08-29 23:32:21,15.0883428,0.0001556,53.2171,226.1567,97.4776,262.6393,1.3874e-05,-6.7e-07,0.0,0 STARLINK-5465,1 54775U 22175T   23241.98080987 -.00000067  00000-0  13874-4 0  9997,2 54775  53.2171 226.1567 0001556  97.4776 262.6393 15.08834280 38466,6917.898,95.438,540.839,538.686,0.0
54775.0,STARLINK-5465,PAYLOAD,2023-08-30 15:26:13,15.08834694,0.0001479,53.2166,223.1861,98.6453,261.4706,1.8695e-07,-2.85e-06,0.0,0 STARLINK-5465,1 54775U 22175T   23242.64321153 -.00000285  00000-0  18695-6 0  9994,2 54775  53.2166 223.1861 0001479  98.6453 261.4706 15.08834694 40729,6917.897,95.438,540.785,538.738,0.0
54775.0,STARLINK-5465,PAYLOAD,2023-08-31 08:55:27,15.08836668,0.0001411,53.2163,219.9144,100.5643,259.5508,4.6993e-05,4.6e-06,0.0,0 STARLINK-5465,1 54775U 22175T   23243.37185018  .00000460  00000-0  46993-4 0  9997,2 54775  53.2163 219.9144 0001411 100.5643 259.5508 15.08836668 38675,6917.891,95.438,540.732,538.779,0.0
54775.0,STARLINK-5465,PAYLOAD,2023-08-31 21:38:33,15.08831496,0.000141,53.2165,217.5353,93.9363,266.179,4.8595e-05,4.85e-06,0.0,0 STARLINK-5465,1 54775U 22175T   23243.90177552  .00000485  00000-0  48595-4 0  9997,2 54775  53.2165 217.5353 0001410  93.9363 266.1790 15.08831496 40917,6917.906,95.438,540.747,538.796,0.0
54775.0,STARLINK-5465,PAYLOAD,2023-08-31 23:13:56,15.08831115,0.0001341,53.216,217.2378,94.3229,265.7916,3.9342e-05,3.38e-06,0.0,0 STARLINK-5465,1 54775U 22175T   23243.96801615  .00000338  00000-0  39342-4 0  9994,2 54775  53.2160 217.2378 0001341  94.3229 265.7916 15.08831115 38768,6917.908,95.438,540.7,538.845,0.0
54775.0,STARLINK-5465,PAYLOAD,2023-09-01 10:21:38,15.08840167,9.69e-05,53.2167,215.1572,100.3,259.8101,8.8893e-05,1.127e-05,0.0,0 STARLINK-5465,1 54775U 22175T   23244.43169029  .00001127  00000-0  88893-4 0  9995,2 54775  53.2167 215.1572 0000969 100.3000 259.8101 15.08840167 40993,6917.88,95.438,540.415,539.075,0.0
54775.0,STARLINK-5465,PAYLOAD,2023-09-01 15:07:47,15.08839999,0.0001359,53.2169,214.2641,90.6261,269.4887,2.9727e-05,1.85e-06,0.0,0 STARLINK-5465,1 54775U 22175T   23244.63041324  .00000185  00000-0  29727-4 0  9998,2 54775  53.2169 214.2641 0001359  90.6261 269.4887 15.08839999 38868,6917.88,95.438,540.686,538.805,0.0
54775.0,STARLINK-5465,PAYLOAD,2023-09-01 21:29:21,15.08797861,0.0001194,53.2166,213.0749,116.2624,243.8491,0.00064237,9.938e-05,0.0,0 STARLINK-5465,1 54775U 22175T   23244.89538735  .00009938  00000-0  64237-3 0  9992,2 54775  53.2166 213.0749 0001194 116.2624 243.8491 15.08797861 41060,6918.009,95.44,540.7,539.048,0.0
54775.0,STARLINK-5465,PAYLOAD,2023-09-02 07:01:38,15.08844764,0.0001433,53.216,211.2907,87.7941,272.3215,0.00012898,1.766e-05,0.0,0 STARLINK-5465,1 54775U 22175T   23245.29280759  .00001766  00000-0  12898-3 0  9994,2 54775  53.2160 211.2907 0001433  87.7941 272.3215 15.08844764 38961,6917.866,95.437,540.722,538.739,0.0
54775.0,STARLINK-5465,PAYLOAD,2023-09-02 10:12:24,15.08847589,0.0001438,53.2162,210.696,87.6853,272.4303,0.00014965,2.095e-05,0.0,0 STARLINK-5465,1 54775U 22175T   23245.42528487  .00002095  00000-0  14965-3 0  9995,2 54775  53.2162 210.6960 0001438  87.6853 272.4303 15.08847589 41142,6917.857,95.437,540.717,538.727,0.0
54775.0,STARLINK-5465,PAYLOAD,2023-09-02 14:58:35,15.08830832,0.0001535,53.216,209.804,92.0027,268.1141,4.3229e-06,-2.19e-06,0.0,0 STARLINK-5465,1 54775U 22175T   23245.62402010 -.00000219  00000-0  43229-5 0  9994,2 54775  53.2160 209.8040 0001535  92.0027 268.1141 15.08830832 39018,6917.908,95.438,540.835,538.712,0.0
54775.0,STARLINK-5465,PAYLOAD,2023-09-02 21:20:07,15.08833534,0.0001158,53.2163,208.6147,95.3968,264.7156,4.3809e-05,4.09e-06,0.0,0 STARLINK-5465,1 54775U 22175T   23245.88897722  .00000409  00000-0  43809-4 0  9993,2 54775  53.2163 208.6147 0001158  95.3968 264.7156 15.08833534 41212,6917.9,95.438,540.566,538.964,0.0
54775.0,STARLINK-5465,PAYLOAD,2023-09-03 06:52:25,15.08847936,0.0001403,53.2154,206.8303,93.0051,267.1102,0.00013477,1.858e-05,0.0,0 STARLINK-5465,1 54775U 22175T   23246.28640676  .00001858  00000-0  13477-3 0  9998,2 54775  53.2154 206.8303 0001403  93.0051 267.1102 15.08847936 39112,6917.856,95.437,540.692,538.751,0.0
54775.0,STARLINK-5465,PAYLOAD,2023-09-03 14:49:22,15.08837482,0.000148,53.2155,205.3438,86.8151,273.301,2.2742e-05,7.4e-07,0.0,0 STARLINK-5465,1 54775U 22175T   23246.61761719  .00000074  00000-0  22742-4 0  9992,2 54775  53.2155 205.3438 0001480  86.8151 273.3010 15.08837482 39169,6917.888,95.438,540.777,538.729,0.0
